STARLINK-32512          
1 62027U 24213V   26068.59724123 -.00011284  00000+0 -36984-3 0  9994
2 62027  53.1609 168.3417 0001307  55.1216 304.9907 15.30163731 73141
KUIPER-00222            
1 67782U 26030U   26068.67636257  .00055223  00000+0  17317-2 0  9992
2 67782  51.8817 219.7147 0012800  40.1845 320.0084 15.32445377  5087
